CCSDS_OMM_VERS = 2.0
CREATION_DATE  = 
ORIGINATOR     = 

OBJECT_NAME    = CSG-3
OBJECT_ID      = 2026-001A
CENTER_NAME    = EARTH
REF_FRAME      = TEME
TIME_SYSTEM    = UTC
MEAN_ELEMENT_THEORY = SGP/SGP4

EPOCH          = 2026-01-15T13:28:20.768736
MEAN_MOTION    = 14.82316317
ECCENTRICITY   = .0001607
INCLINATION    = 97.8486
RA_OF_ASC_NODE = 201.4414
ARG_OF_PERICENTER = 91.4020
MEAN_ANOMALY   = 268.7378

EPHEMERIS_TYPE = 0
CLASSIFICATION_TYPE = U
NORAD_CAT_ID   = 67304
ELEMENT_SET_NO = 999
REV_AT_EPOCH   = 185
BSTAR          = .26241E-4
MEAN_MOTION_DOT = .158E-5
MEAN_MOTION_DDOT = 0

CCSDS_OMM_VERS = 2.0
CREATION_DATE  = 
ORIGINATOR     = 

OBJECT_NAME    = STARLINK-36490
OBJECT_ID      = 2026-002A
CENTER_NAME    = EARTH
REF_FRAME      = TEME
TIME_SYSTEM    = UTC
MEAN_ELEMENT_THEORY = SGP/SGP4

EPOCH          = 2026-01-15T12:00:01.999296
MEAN_MOTION    = 15.87465756
ECCENTRICITY   = .0001762
INCLINATION    = 42.9976
RA_OF_ASC_NODE = 272.7606
ARG_OF_PERICENTER = 265.2282
MEAN_ANOMALY   = 76.0678

EPHEMERIS_TYPE = 0
CLASSIFICATION_TYPE = U
NORAD_CAT_ID   = 67305
ELEMENT_SET_NO = 999
REV_AT_EPOCH   = 292
BSTAR          = -.54403E-2
MEAN_MOTION_DOT = -.131325E-1
MEAN_MOTION_DDOT = 0

CCSDS_OMM_VERS = 2.0
CREATION_DATE  = 
ORIGINATOR     = 

OBJECT_NAME    = STARLINK-36488
OBJECT_ID      = 2026-002B
CENTER_NAME    = EARTH
REF_FRAME      = TEME
TIME_SYSTEM    = UTC
MEAN_ELEMENT_THEORY = SGP/SGP4

EPOCH          = 2026-01-15T12:00:01.999296
MEAN_MOTION    = 15.87477613
ECCENTRICITY   = .0001965
INCLINATION    = 42.9977
RA_OF_ASC_NODE = 272.7555
ARG_OF_PERICENTER = 269.4403
MEAN_ANOMALY   = 73.8990

EPHEMERIS_TYPE = 0
CLASSIFICATION_TYPE = U
NORAD_CAT_ID   = 67306
ELEMENT_SET_NO = 999
REV_AT_EPOCH   = 286
BSTAR          = -.54175E-2
MEAN_MOTION_DOT = -.1309246E-1
MEAN_MOTION_DDOT = 0

CCSDS_OMM_VERS = 2.0
CREATION_DATE  = 
ORIGINATOR     = 

OBJECT_NAME    = STARLINK-36481
OBJECT_ID      = 2026-002C
CENTER_NAME    = EARTH
REF_FRAME      = TEME
TIME_SYSTEM    = UTC
MEAN_ELEMENT_THEORY = SGP/SGP4

EPOCH          = 2026-01-15T12:00:01.999296
MEAN_MOTION    = 15.87492627
ECCENTRICITY   = .0002017
INCLINATION    = 42.9979
RA_OF_ASC_NODE = 272.7430
ARG_OF_PERICENTER = 269.3548
MEAN_ANOMALY   = 79.0045

EPHEMERIS_TYPE = 0
CLASSIFICATION_TYPE = U
NORAD_CAT_ID   = 67307
ELEMENT_SET_NO = 999
REV_AT_EPOCH   = 286
BSTAR          = -.55098E-2
MEAN_MOTION_DOT = -.132976E-1
MEAN_MOTION_DDOT = 0

CCSDS_OMM_VERS = 2.0
CREATION_DATE  = 
ORIGINATOR     = 

OBJECT_NAME    = STARLINK-36449
OBJECT_ID      = 2026-002D
CENTER_NAME    = EARTH
REF_FRAME      = TEME
TIME_SYSTEM    = UTC
MEAN_ELEMENT_THEORY = SGP/SGP4

EPOCH          = 2026-01-15T12:00:01.999296
MEAN_MOTION    = 15.87500790
ECCENTRICITY   = .0001944
INCLINATION    = 42.9976
RA_OF_ASC_NODE = 272.7369
ARG_OF_PERICENTER = 270.9717
MEAN_ANOMALY   = 79.7597

EPHEMERIS_TYPE = 0
CLASSIFICATION_TYPE = U
NORAD_CAT_ID   = 67308
ELEMENT_SET_NO = 999
REV_AT_EPOCH   = 292
BSTAR          = -.55218E-2
MEAN_MOTION_DOT = -.1332742E-1
MEAN_MOTION_DDOT = 0

CCSDS_OMM_VERS = 2.0
CREATION_DATE  = 
ORIGINATOR     = 

OBJECT_NAME    = STARLINK-36482
OBJECT_ID      = 2026-002E
CENTER_NAME    = EARTH
REF_FRAME      = TEME
TIME_SYSTEM    = UTC
MEAN_ELEMENT_THEORY = SGP/SGP4

EPOCH          = 2026-01-15T12:00:01.999296
MEAN_MOTION    = 15.87527218
ECCENTRICITY   = .0001974
INCLINATION    = 42.9981
RA_OF_ASC_NODE = 272.7065
ARG_OF_PERICENTER = 268.8044
MEAN_ANOMALY   = 94.2872

EPHEMERIS_TYPE = 0
CLASSIFICATION_TYPE = U
NORAD_CAT_ID   = 67309
ELEMENT_SET_NO = 999
REV_AT_EPOCH   = 286
BSTAR          = -.56619E-2
MEAN_MOTION_DOT = -.1363941E-1
MEAN_MOTION_DDOT = 0

CCSDS_OMM_VERS = 2.0
CREATION_DATE  = 
ORIGINATOR     = 

OBJECT_NAME    = STARLINK-36491
OBJECT_ID      = 2026-002F
CENTER_NAME    = EARTH
REF_FRAME      = TEME
TIME_SYSTEM    = UTC
MEAN_ELEMENT_THEORY = SGP/SGP4

EPOCH          = 2026-01-15T12:00:01.999296
MEAN_MOTION    = 15.87474783
ECCENTRICITY   = .0001949
INCLINATION    = 42.9980
RA_OF_ASC_NODE = 272.7482
ARG_OF_PERICENTER = 268.6514
MEAN_ANOMALY   = 77.7380

EPHEMERIS_TYPE = 0
CLASSIFICATION_TYPE = U
NORAD_CAT_ID   = 67310
ELEMENT_SET_NO = 999
REV_AT_EPOCH   = 286
BSTAR          = -.55122E-2
MEAN_MOTION_DOT = -.1329168E-1
MEAN_MOTION_DDOT = 0

CCSDS_OMM_VERS = 2.0
CREATION_DATE  = 
ORIGINATOR     = 

OBJECT_NAME    = STARLINK-36495
OBJECT_ID      = 2026-002G
CENTER_NAME    = EARTH
REF_FRAME      = TEME
TIME_SYSTEM    = UTC
MEAN_ELEMENT_THEORY = SGP/SGP4

EPOCH          = 2026-01-15T12:00:01.999296
MEAN_MOTION    = 15.87494241
ECCENTRICITY   = .0002068
INCLINATION    = 42.9979
RA_OF_ASC_NODE = 272.7302
ARG_OF_PERICENTER = 268.5996
MEAN_ANOMALY   = 84.8247

EPHEMERIS_TYPE = 0
CLASSIFICATION_TYPE = U
NORAD_CAT_ID   = 67311
ELEMENT_SET_NO = 999
REV_AT_EPOCH   = 302
BSTAR          = -.55282E-2
MEAN_MOTION_DOT = -.1333796E-1
MEAN_MOTION_DDOT = 0

CCSDS_OMM_VERS = 2.0
CREATION_DATE  = 
ORIGINATOR     = 

OBJECT_NAME    = STARLINK-36485
OBJECT_ID      = 2026-002H
CENTER_NAME    = EARTH
REF_FRAME      = TEME
TIME_SYSTEM    = UTC
MEAN_ELEMENT_THEORY = SGP/SGP4

EPOCH          = 2026-01-15T12:00:01.999296
MEAN_MOTION    = 15.87493603
ECCENTRICITY   = .0002046
INCLINATION    = 42.9979
RA_OF_ASC_NODE = 272.7228
ARG_OF_PERICENTER = 267.6745
MEAN_ANOMALY   = 88.6246

EPHEMERIS_TYPE = 0
CLASSIFICATION_TYPE = U
NORAD_CAT_ID   = 67312
ELEMENT_SET_NO = 999
REV_AT_EPOCH   = 286
BSTAR          = -.56092E-2
MEAN_MOTION_DOT = -.135087E-1
MEAN_MOTION_DDOT = 0

CCSDS_OMM_VERS = 2.0
CREATION_DATE  = 
ORIGINATOR     = 

OBJECT_NAME    = STARLINK-36445
OBJECT_ID      = 2026-002J
CENTER_NAME    = EARTH
REF_FRAME      = TEME
TIME_SYSTEM    = UTC
MEAN_ELEMENT_THEORY = SGP/SGP4

EPOCH          = 2026-01-15T12:00:01.999296
MEAN_MOTION    = 15.87521486
ECCENTRICITY   = .0001968
INCLINATION    = 42.9975
RA_OF_ASC_NODE = 272.7182
ARG_OF_PERICENTER = 262.4399
MEAN_ANOMALY   = 95.5993

EPHEMERIS_TYPE = 0
CLASSIFICATION_TYPE = U
NORAD_CAT_ID   = 67313
ELEMENT_SET_NO = 999
REV_AT_EPOCH   = 302
BSTAR          = -.5624E-2
MEAN_MOTION_DOT = -.1355594E-1
MEAN_MOTION_DDOT = 0

CCSDS_OMM_VERS = 2.0
CREATION_DATE  = 
ORIGINATOR     = 

OBJECT_NAME    = STARLINK-36476
OBJECT_ID      = 2026-002K
CENTER_NAME    = EARTH
REF_FRAME      = TEME
TIME_SYSTEM    = UTC
MEAN_ELEMENT_THEORY = SGP/SGP4

EPOCH          = 2026-01-15T12:00:01.999296
MEAN_MOTION    = 15.87516066
ECCENTRICITY   = .0001975
INCLINATION    = 42.9980
RA_OF_ASC_NODE = 272.7115
ARG_OF_PERICENTER = 268.8768
MEAN_ANOMALY   = 91.9958

EPHEMERIS_TYPE = 0
CLASSIFICATION_TYPE = U
NORAD_CAT_ID   = 67314
ELEMENT_SET_NO = 999
REV_AT_EPOCH   = 286
BSTAR          = -.56401E-2
MEAN_MOTION_DOT = -.135868E-1
MEAN_MOTION_DDOT = 0

CCSDS_OMM_VERS = 2.0
CREATION_DATE  = 
ORIGINATOR     = 

OBJECT_NAME    = STARLINK-36463
OBJECT_ID      = 2026-002L
CENTER_NAME    = EARTH
REF_FRAME      = TEME
TIME_SYSTEM    = UTC
MEAN_ELEMENT_THEORY = SGP/SGP4

EPOCH          = 2026-01-15T12:00:01.999296
MEAN_MOTION    = 15.87540155
ECCENTRICITY   = .0001573
INCLINATION    = 42.9978
RA_OF_ASC_NODE = 272.6993
ARG_OF_PERICENTER = 269.4946
MEAN_ANOMALY   = 95.9935

EPHEMERIS_TYPE = 0
CLASSIFICATION_TYPE = U
NORAD_CAT_ID   = 67315
ELEMENT_SET_NO = 999
REV_AT_EPOCH   = 292
BSTAR          = -.57171E-2
MEAN_MOTION_DOT = -.1376006E-1
MEAN_MOTION_DDOT = 0

