CSG-3                   
1 67304U 26001A   26015.56135149  .00000158  00000+0  26241-4 0  9999
2 67304  97.8486 201.4414 0001607  91.4020 268.7378 14.82316317  1851
STARLINK-36490          
1 67305U 26002A   26015.50002314 -.01313250  00000+0 -54403-2 0  9994
2 67305  42.9976 272.7606 0001762 265.2282  76.0678 15.87465756  2924
STARLINK-36488          
1 67306U 26002B   26015.50002314 -.01309246  00000+0 -54175-2 0  9991
2 67306  42.9977 272.7555 0001965 269.4403  73.8990 15.87477613  2865
STARLINK-36481          
1 67307U 26002C   26015.50002314 -.01329760  00000+0 -55098-2 0  9990
2 67307  42.9979 272.7430 0002017 269.3548  79.0045 15.87492627  2869
STARLINK-36449          
1 67308U 26002D   26015.50002314 -.01332742  00000+0 -55218-2 0  9999
2 67308  42.9976 272.7369 0001944 270.9717  79.7597 15.87500790  2929
STARLINK-36482          
1 67309U 26002E   26015.50002314 -.01363941  00000+0 -56619-2 0  9991
2 67309  42.9981 272.7065 0001974 268.8044  94.2872 15.87527218  2866
STARLINK-36491          
1 67310U 26002F   26015.50002314 -.01329168  00000+0 -55122-2 0  9994
2 67310  42.9980 272.7482 0001949 268.6514  77.7380 15.87474783  2860
STARLINK-36495          
1 67311U 26002G   26015.50002314 -.01333796  00000+0 -55282-2 0  9994
2 67311  42.9979 272.7302 0002068 268.5996  84.8247 15.87494241  3027
STARLINK-36485          
1 67312U 26002H   26015.50002314 -.01350870  00000+0 -56092-2 0  9997
2 67312  42.9979 272.7228 0002046 267.6745  88.6246 15.87493603  2866
STARLINK-36445          
1 67313U 26002J   26015.50002314 -.01355594  00000+0 -56240-2 0  9991
2 67313  42.9975 272.7182 0001968 262.4399  95.5993 15.87521486  3028
STARLINK-36476          
1 67314U 26002K   26015.50002314 -.01358680  00000+0 -56401-2 0  9990
2 67314  42.9980 272.7115 0001975 268.8768  91.9958 15.87516066  2869
STARLINK-36463          
1 67315U 26002L   26015.50002314 -.01376006  00000+0 -57171-2 0  9998
2 67315  42.9978 272.6993 0001573 269.4946  95.9935 15.87540155  2921
